NORAD_CAT_ID,OBJECT_NAME,OBJECT_TYPE,EPOCH,MEAN_MOTION,ECCENTRICITY,INCLINATION,RA_OF_ASC_NODE,ARG_OF_PERICENTER,MEAN_ANOMALY,BSTAR,MEAN_MOTION_DOT,MEAN_MOTION_DDOT,TLE_LINE0,TLE_LINE1,TLE_LINE2,SEMIMAJOR_AXIS,PERIOD,APOGEE,PERIGEE,DECAYED
51974.0,STARLINK-3672,PAYLOAD,2024-07-29 02:52:27,15.06406984,0.0001557,53.0553,153.076,88.4445,271.6723,-5.79e-07,-2.9e-06,0.0,0 STARLINK-3672,1 51974U 22025U   24211.11976363 -.00000290  00000-0 -57900-6 0  9993,2 51974  53.0553 153.0760 0001557  88.4445 271.6723 15.06406984133291,6925.327,95.592,548.27,546.114,0.0
51974.0,STARLINK-3672,PAYLOAD,2024-07-29 20:23:24,15.0639493,0.0001631,53.0553,149.798,91.8768,268.2408,0.00011461,1.426e-05,0.0,0 STARLINK-3672,1 51974U 22025U   24211.84958537  .00001426  00000-0  11461-3 0  9995,2 51974  53.0553 149.7980 0001631  91.8768 268.2408 15.06394930133408,6925.364,95.592,548.359,546.1,0.0
51974.0,STARLINK-3672,PAYLOAD,2024-07-30 12:18:46,15.0640967,0.0001437,53.0554,146.822,86.2168,273.8985,0.00024864,3.425e-05,0.0,0 STARLINK-3672,1 51974U 22025U   24212.51304110  .00003425  00000-0  24864-3 0  9994,2 51974  53.0554 146.8220 0001437  86.2168 273.8985 15.06409670133501,6925.319,95.592,548.179,546.189,0.0
51974.0,STARLINK-3672,PAYLOAD,2024-07-30 23:27:33,15.06414525,0.0001522,53.0567,144.744,98.5689,261.5472,0.0001715,2.275e-05,0.0,0 STARLINK-3672,1 51974U 22025U   24212.97746548  .00002275  00000-0  17150-3 0  9991,2 51974  53.0567 144.7440 0001522  98.5689 261.5472 15.06414525132481,6925.304,95.591,548.223,546.115,0.0
51974.0,STARLINK-3672,PAYLOAD,2024-07-31 12:11:52,15.06401,0.0001474,53.0537,142.3511,80.6213,279.4943,4.712e-05,4.2e-06,0.0,0 STARLINK-3672,1 51974U 22025U   24213.50824932  .00000420  00000-0  47120-4 0  9996,2 51974  53.0537 142.3511 0001474  80.6213 279.4943 15.06401000133657,6925.345,95.592,548.231,546.19,0.0
51974.0,STARLINK-3672,PAYLOAD,2024-08-01 02:31:44,15.06396107,0.0001589,53.0543,139.6724,86.0691,274.0479,-8.024e-05,-1.476e-05,0.0,0 STARLINK-3672,1 51974U 22025U   24214.10538175 -.00001476  00000-0 -80240-4 0  9998,2 51974  53.0543 139.6724 0001589  86.0691 274.0479 15.06396107133742,6925.36,95.592,548.326,546.125,0.0
51974.0,STARLINK-3672,PAYLOAD,2024-08-01 12:04:58,15.06396743,0.0001439,53.0553,137.8856,85.0805,275.0348,-1.8415e-06,-3.09e-06,0.0,0 STARLINK-3672,1 51974U 22025U   24214.50345997 -.00000309  00000-0 -18415-5 0  9990,2 51974  53.0553 137.8856 0001439  85.0805 275.0348 15.06396743132717,6925.359,95.592,548.22,546.227,0.0
51974.0,STARLINK-3672,PAYLOAD,2024-08-02 02:24:49,15.06415559,0.0001607,53.0542,135.2047,118.6221,241.4929,0.0002537,3.501e-05,0.0,0 STARLINK-3672,1 51974U 22025U   24215.10056762  .00003501  00000-0  25370-3 0  9997,2 51974  53.0542 135.2047 0001607 118.6221 241.4929 15.06415559133890,6925.301,95.591,548.279,546.053,0.0
51974.0,STARLINK-3672,PAYLOAD,2024-08-02 11:58:03,15.06404472,0.0001338,53.0539,133.4181,94.9135,265.2007,0.0003792,5.372e-05,0.0,0 STARLINK-3672,1 51974U 22025U   24215.49865597  .00005372  00000-0  37920-3 0  9995,2 51974  53.0539 133.4181 0001338  94.9135 265.2007 15.06404472133956,6925.335,95.592,548.126,546.273,0.0
51974.0,STARLINK-3672,PAYLOAD,2024-08-02 18:20:14,15.06386077,0.0001328,53.0535,132.2274,96.3925,263.7215,8.1187e-05,9.28e-06,0.0,0 STARLINK-3672,1 51974U 22025U   24215.76405303  .00000928  00000-0  81187-4 0  9997,2 51974  53.0535 132.2274 0001328  96.3925 263.7215 15.06386077133992,6925.391,95.593,548.176,546.337,0.0
51974.0,STARLINK-3672,PAYLOAD,2024-08-03 03:53:27,15.06403927,0.0001286,53.0529,130.4402,106.1047,254.0084,0.00029255,4.079e-05,0.0,0 STARLINK-3672,1 51974U 22025U   24216.16212759  .00004079  00000-0  29255-3 0  9991,2 51974  53.0529 130.4402 0001286 106.1047 254.0084 15.06403927134055,6925.337,95.592,548.092,546.311,0.0
51974.0,STARLINK-3672,PAYLOAD,2024-08-03 11:51:10,15.0639356,0.0001516,53.0536,128.9526,87.7908,272.3255,5.6693e-05,5.63e-06,0.0,0 STARLINK-3672,1 51974U 22025U   24216.49386724  .00000563  00000-0  56693-4 0  9992,2 51974  53.0536 128.9526 0001516  87.7908 272.3255 15.06393560134108,6925.368,95.593,548.283,546.183,0.0
51974.0,STARLINK-3672,PAYLOAD,2024-08-03 21:24:24,15.06396143,0.0001276,53.053,127.1657,87.6709,272.4426,0.0004137,5.885e-05,0.0,0 STARLINK-3672,1 51974U 22025U   24216.89194957  .00005885  00000-0  41370-3 0  9998,2 51974  53.0530 127.1657 0001276  87.6709 272.4426 15.06396143133075,6925.36,95.592,548.109,546.342,0.0
51974.0,STARLINK-3672,PAYLOAD,2024-08-04 03:46:33,15.0640881,0.0001352,53.054,125.9723,99.2294,260.8848,0.0010694,0.00015687,0.0,0 STARLINK-3672,1 51974U 22025U   24217.15733555  .00015687  00000-0  10694-2 0  9996,2 51974  53.0540 125.9723 0001352  99.2294 260.8848 15.06408810134209,6925.322,95.592,548.123,546.25,0.0
51974.0,STARLINK-3672,PAYLOAD,2024-08-04 21:17:29,15.06416031,0.0001421,53.0534,122.6931,86.2903,273.8249,0.00097592,0.00014291,0.0,0 STARLINK-3672,1 51974U 22025U   24217.88714982  .00014291  00000-0  97592-3 0  9992,2 51974  53.0534 122.6931 0001421  86.2903 273.8249 15.06416031134312,6925.299,95.591,548.149,546.18,0.0
51974.0,STARLINK-3672,PAYLOAD,2024-08-04 22:53:01,15.06423291,0.0001624,53.0537,122.3948,78.995,281.1221,0.0010478,0.0001537,0.0,0 STARLINK-3672,1 51974U 22025U   24217.95349485  .00015370  00000-0  10478-2 0  9998,2 51974  53.0537 122.3948 0001624  78.9950 281.1221 15.06423291133233,6925.277,95.591,548.267,546.018,0.0
51974.0,STARLINK-3672,PAYLOAD,2024-08-05 03:39:38,15.06437134,0.0001336,53.0534,121.505,89.875,270.2392,0.0015719,0.00023233,0.0,0 STARLINK-3672,1 51974U 22025U   24218.15253050  .00023233  00000-0  15719-2 0  9993,2 51974  53.0534 121.5050 0001336  89.8750 270.2392 15.06437134134357,6925.235,95.59,548.025,546.175,0.0
51974.0,STARLINK-3672,PAYLOAD,2024-08-05 21:10:36,15.0637635,0.0001455,53.0538,118.2292,121.764,238.3491,0.00085375,0.0001245,0.0,0 STARLINK-3672,1 51974U 22025U   24218.88236268  .00012450  00000-0  85375-3 0  9990,2 51974  53.0538 118.2292 0001455 121.7640 238.3491 15.06376350134467,6925.421,95.594,548.294,546.278,0.0
51974.0,STARLINK-3672,PAYLOAD,2024-08-05 22:46:08,15.0637883,0.0001497,53.0537,117.9317,123.3081,236.8051,0.001261,0.0001854,0.0,0 STARLINK-3672,1 51974U 22025U   24218.94871041  .00018540  00000-0  12610-2 0  9998,2 51974  53.0537 117.9317 0001497 123.3081 236.8051 15.06378830133383,6925.413,95.593,548.315,546.242,0.0
51974.0,STARLINK-3672,PAYLOAD,2024-08-06 00:21:41,15.06379595,0.0001258,53.0536,117.634,111.32,248.7924,0.0014592,0.00021508,0.0,0 STARLINK-3672,1 51974U 22025U   24219.01505892  .00021508  00000-0  14592-2 0  9994,2 51974  53.0536 117.6340 0001258 111.3200 248.7924 15.06379595133391,6925.411,95.593,548.147,546.405,0.0
51974.0,STARLINK-3672,PAYLOAD,2024-08-06 21:03:42,15.06405735,0.000136,53.0532,113.7636,120.948,239.1643,0.0011753,0.00017271,0.0,0 STARLINK-3672,1 51974U 22025U   24219.87757080  .00017271  00000-0  11753-2 0  9994,2 51974  53.0532 113.7636 0001360 120.9480 239.1643 15.06405735133525,6925.331,95.592,548.138,546.254,0.0
51974.0,STARLINK-3672,PAYLOAD,2024-08-06 22:39:14,15.06408999,0.0001364,53.0533,113.466,121.0709,239.0413,0.0012392,0.00018229,0.0,0 STARLINK-3672,1 51974U 22025U   24219.94391701  .00018229  00000-0  12392-2 0  9990,2 51974  53.0533 113.4660 0001364 121.0709 239.0413 15.06408999134621,6925.321,95.592,548.131,546.241,0.0
51974.0,STARLINK-3672,PAYLOAD,2024-08-07 20:56:46,15.06421537,0.0001163,53.0524,109.2939,115.1567,244.9543,0.00085129,0.00012428,0.0,0 STARLINK-3672,1 51974U 22025U   24220.87276405  .00012428  00000-0  85129-3 0  9991,2 51974  53.0524 109.2939 0001163 115.1567 244.9543 15.06421537134763,6925.283,95.591,547.953,546.342,0.0
51974.0,STARLINK-3672,PAYLOAD,2024-08-08 22:25:24,15.06407846,7.57e-05,53.0544,104.5313,86.9185,273.1891,0.00045713,6.536e-05,0.0,0 STARLINK-3672,1 51974U 22025U   24221.93431262  .00006536  00000-0  45713-3 0  9991,2 51974  53.0544 104.5313 0000757  86.9185 273.1891 15.06407846134923,6925.325,95.592,547.714,546.665,0.0
51974.0,STARLINK-3672,PAYLOAD,2024-08-09 09:34:11,15.06395689,0.000215,53.0552,102.4424,88.5678,271.5557,-9.3857e-05,-1.679e-05,0.0,0 STARLINK-3672,1 51974U 22025U   24222.39874877 -.00001679  00000-0 -93857-4 0  9993,2 51974  53.0552 102.4424 0002150  88.5678 271.5557 15.06395689134995,6925.362,95.592,548.716,545.738,0.0
51974.0,STARLINK-3672,PAYLOAD,2024-08-09 20:42:57,15.06400952,0.0001218,53.0541,100.3512,114.4252,245.6864,1.6894e-05,-3e-07,0.0,0 STARLINK-3672,1 51974U 22025U   24222.86316820 -.00000030  00000-0  16894-4 0  9999,2 51974  53.0541 100.3512 0001218 114.4252 245.6864 15.06400952135061,6925.346,95.592,548.054,546.367,0.0
51974.0,STARLINK-3672,PAYLOAD,2024-08-10 01:29:34,15.06405861,0.0001415,53.055,99.4575,114.3189,245.7948,0.00029936,4.181e-05,0.0,0 STARLINK-3672,1 51974U 22025U   24223.06220850  .00004181  00000-0  29936-3 0  9999,2 51974  53.0550  99.4575 0001415 114.3189 245.7948 15.06405861134006,6925.331,95.592,548.176,546.216,0.0
51974.0,STARLINK-3672,PAYLOAD,2024-08-10 22:11:35,15.06402399,0.0001397,53.0535,95.5911,85.2167,274.8981,0.0001702,2.255e-05,0.0,0 STARLINK-3672,1 51974U 22025U   24223.92472168  .00002255  00000-0  17020-3 0  9996,2 51974  53.0535  95.5911 0001397  85.2167 274.8981 15.06402399134138,6925.341,95.592,548.174,546.239,0.0
51974.0,STARLINK-3672,PAYLOAD,2024-08-11 15:42:32,15.06404988,0.0001505,53.0549,92.3119,95.1987,264.9173,0.00031732,4.449e-05,0.0,0 STARLINK-3672,1 51974U 22025U   24224.65454061  .00004449  00000-0  31732-3 0  9992,2 51974  53.0549  92.3119 0001505  95.1987 264.9173 15.06404988135331,6925.333,95.592,548.241,546.156,0.0
51974.0,STARLINK-3672,PAYLOAD,2024-08-11 22:04:40,15.0641765,0.0001618,53.0545,91.1238,97.3046,262.8127,0.00060124,8.689e-05,0.0,0 STARLINK-3672,1 51974U 22025U   24224.91991833  .00008689  00000-0  60124-3 0  9991,2 51974  53.0545  91.1238 0001618  97.3046 262.8127 15.06417650134280,6925.294,95.591,548.28,546.039,0.0
